CELESTIS-17 & SHERPA-FX1
1 47486U 21006CB  26068.64311433  .00007207  00000+0  24301-3 0  9993
2 47486  97.2397 112.1052 0006630 178.1385 181.9882 15.30994801284065
STARLINK-31836          
1 59724U 24088S   26068.51447144 -.00000143  00000+0  73059-5 0  9998
2 59724  53.1605 140.8406 0001288 114.5966 245.5170 15.30181197103658
